{
  "type": "FeatureCollection",
  "features": [
    {
      "type": "Feature",
      "properties": {
        "norad_id": 38137,
        "name": "FENGYUN 1C DEB",
        "group": "fengyun-1c-debris",
        "lat": -38.123489928957774,
        "lon": 30.764689032997886,
        "alt_km": 897.769761874285,
        "timestamp": "2025-12-06T20:37:56.362512+00:00",
        "meta_object_name": "FENGYUN 1C DEB",
        "meta_object_id": "1999-025EQJ",
        "meta_epoch": "2025-12-03T09:08:14.061984",
        "meta_mean_motion": 14.06146655,
        "meta_eccentricity": 0.00467474,
        "meta_inclination": 98.8662,
        "meta_ra_of_asc_node": 20.3228,
        "meta_arg_of_pericenter": 95.1511,
        "meta_mean_anomaly": 265.4995,
        "meta_ephemeris_type": 0,
        "meta_classification_type": "U",
        "meta_norad_cat_id": 38137,
        "meta_element_set_no": 999,
        "meta_rev_at_epoch": 63577,
        "meta_bstar": 0.00028746686,
        "meta_mean_motion_dot": 4.34e-06,
        "meta_mean_motion_ddot": 0,
        "tle_line1": "1 38137U 99025EQJ 25337.38071831  .00000434  00000+0  28747-3 0  9999",
        "tle_line2": "2 38137  98.8662  20.3228 0046747  95.1511 265.4995 14.06146655635776"
      },
      "geometry": {
        "type": "Point",
        "coordinates": [
          30.764689032997886,
          -38.123489928957774
        ]
      }
    },
    {
      "type": "Feature",
      "properties": {
        "norad_id": 38143,
        "name": "FENGYUN 1C DEB",
        "group": "fengyun-1c-debris",
        "lat": 62.85899631789833,
        "lon": -125.13240286078415,
        "alt_km": 891.9686412734536,
        "timestamp": "2025-12-06T20:37:56.362522+00:00",
        "meta_object_name": "FENGYUN 1C DEB",
        "meta_object_id": "1999-025EQQ",
        "meta_epoch": "2025-12-02T22:04:03.833184",
        "meta_mean_motion": 14.04865193,
        "meta_eccentricity": 0.00557173,
        "meta_inclination": 99.0286,
        "meta_ra_of_asc_node": 32.8796,
        "meta_arg_of_pericenter": 248.4749,
        "meta_mean_anomaly": 111.0473,
        "meta_ephemeris_type": 0,
        "meta_classification_type": "U",
        "meta_norad_cat_id": 38143,
        "meta_element_set_no": 999,
        "meta_rev_at_epoch": 60145,
        "meta_bstar": 0.00072272115,
        "meta_mean_motion_dot": 1.132e-05,
        "meta_mean_motion_ddot": 0,
        "tle_line1": "1 38143U 99025EQQ 25336.91948881  .00001132  00000+0  72272-3 0  9990",
        "tle_line2": "2 38143  99.0286  32.8796 0055717 248.4749 111.0473 14.04865193601457"
      },
      "geometry": {
        "type": "Point",
        "coordinates": [
          -125.13240286078415,
          62.85899631789833
        ]
      }
    },
    {
      "type": "Feature",
      "properties": {
        "norad_id": 38144,
        "name": "FENGYUN 1C DEB",
        "group": "fengyun-1c-debris",
        "lat": 5.017205227881018,
        "lon": 165.01620659089025,
        "alt_km": 1241.1804990025603,
        "timestamp": "2025-12-06T20:37:56.362533+00:00",
        "meta_object_name": "FENGYUN 1C DEB",
        "meta_object_id": "1999-025EQR",
        "meta_epoch": "2025-11-30T05:34:28.265376",
        "meta_mean_motion": 13.58961896,
        "meta_eccentricity": 0.02908675,
        "meta_inclination": 98.9697,
        "meta_ra_of_asc_node": 159.7393,
        "meta_arg_of_pericenter": 223.9628,
        "meta_mean_anomaly": 133.8043,
        "meta_ephemeris_type": 0,
        "meta_classification_type": "U",
        "meta_norad_cat_id": 38144,
        "meta_element_set_no": 999,
        "meta_rev_at_epoch": 60867,
        "meta_bstar": 0.0017584648,
        "meta_mean_motion_dot": 1.663e-05,
        "meta_mean_motion_ddot": 0,
        "tle_line1": "1 38144U 99025EQR 25334.23227159  .00001663  00000+0  17585-2 0  9996",
        "tle_line2": "2 38144  98.9697 159.7393 0290867 223.9628 133.8043 13.58961896608676"
      },
      "geometry": {
        "type": "Point",
        "coordinates": [
          165.01620659089025,
          5.017205227881018
        ]
      }
    },
    {
      "type": "Feature",
      "properties": {
        "norad_id": 38146,
        "name": "FENGYUN 1C DEB",
        "group": "fengyun-1c-debris",
        "lat": -30.7764433286369,
        "lon": 66.25318984288394,
        "alt_km": 827.8285424019214,
        "timestamp": "2025-12-06T20:37:56.362544+00:00",
        "meta_object_name": "FENGYUN 1C DEB",
        "meta_object_id": "1999-025EQT",
        "meta_epoch": "2025-12-03T10:45:50.404320",
        "meta_mean_motion": 14.59033464,
        "meta_eccentricity": 0.02030621,
        "meta_inclination": 99.485,
        "meta_ra_of_asc_node": 56.6441,
        "meta_arg_of_pericenter": 130.793,
        "meta_mean_anomaly": 291.7125,
        "meta_ephemeris_type": 0,
        "meta_classification_type": "U",
        "meta_norad_cat_id": 38146,
        "meta_element_set_no": 999,
        "meta_rev_at_epoch": 31744,
        "meta_bstar": 0.0015249301,
        "meta_mean_motion_dot": 9.498e-05,
        "meta_mean_motion_ddot": 0,
        "tle_line1": "1 38146U 99025EQT 25337.44850005  .00009498  00000+0  15249-2 0  9995",
        "tle_line2": "2 38146  99.4850  56.6441 0203062 130.7930 291.7125 14.59033464317446"
      },
      "geometry": {
        "type": "Point",
        "coordinates": [
          66.25318984288394,
          -30.7764433286369
        ]
      }
    },
    {
      "type": "Feature",
      "properties": {
        "norad_id": 38147,
        "name": "FENGYUN 1C DEB",
        "group": "fengyun-1c-debris",
        "lat": 7.6634478690936385,
        "lon": 176.40266996948228,
        "alt_km": 845.4377058531372,
        "timestamp": "2025-12-06T20:37:56.362556+00:00",
        "meta_object_name": "FENGYUN 1C DEB",
        "meta_object_id": "1999-025EQU",
        "meta_epoch": "2025-11-29T07:18:26.920800",
        "meta_mean_motion": 14.23385127,
        "meta_eccentricity": 0.0050737,
        "meta_inclination": 98.5592,
        "meta_ra_of_asc_node": 347.8933,
        "meta_arg_of_pericenter": 338.7731,
        "meta_mean_anomaly": 21.1342,
        "meta_ephemeris_type": 0,
        "meta_classification_type": "U",
        "meta_norad_cat_id": 38147,
        "meta_element_set_no": 999,
        "meta_rev_at_epoch": 60196,
        "meta_bstar": 0.00059773367,
        "meta_mean_motion_dot": 1.331e-05,
        "meta_mean_motion_ddot": 0,
        "tle_line1": "1 38147U 99025EQU 25333.30447825  .00001331  00000+0  59773-3 0  9998",
        "tle_line2": "2 38147  98.5592 347.8933 0050737 338.7731  21.1342 14.23385127601965"
      },
      "geometry": {
        "type": "Point",
        "coordinates": [
          176.40266996948228,
          7.6634478690936385
        ]
      }
    },
    {
      "type": "Feature",
      "properties": {
        "norad_id": 38149,
        "name": "FENGYUN 1C DEB",
        "group": "fengyun-1c-debris",
        "lat": -79.0860586753275,
        "lon": 103.6996922320362,
        "alt_km": 806.9578421276601,
        "timestamp": "2025-12-06T20:37:56.362569+00:00",
        "meta_object_name": "FENGYUN 1C DEB",
        "meta_object_id": "1999-025EQW",
        "meta_epoch": "2025-12-06T05:56:02.827680",
        "meta_mean_motion": 14.25908359,
        "meta_eccentricity": 0.0077612,
        "meta_inclination": 98.3566,
        "meta_ra_of_asc_node": 332.7826,
        "meta_arg_of_pericenter": 180.2824,
        "meta_mean_anomaly": 179.8325,
        "meta_ephemeris_type": 0,
        "meta_classification_type": "U",
        "meta_norad_cat_id": 38149,
        "meta_element_set_no": 999,
        "meta_rev_at_epoch": 70395,
        "meta_bstar": 0.00038093359,
        "meta_mean_motion_dot": 8.95e-06,
        "meta_mean_motion_ddot": 0,
        "tle_line1": "1 38149U 99025EQW 25340.24725495  .00000895  00000+0  38093-3 0  9999",
        "tle_line2": "2 38149  98.3566 332.7826 0077612 180.2824 179.8325 14.25908359703958"
      },
      "geometry": {
        "type": "Point",
        "coordinates": [
          103.6996922320362,
          -79.0860586753275
        ]
      }
    },
    {
      "type": "Feature",
      "properties": {
        "norad_id": 38155,
        "name": "FENGYUN 1C DEB",
        "group": "fengyun-1c-debris",
        "lat": -39.55762475583526,
        "lon": 58.38042394630519,
        "alt_km": 796.6364156573145,
        "timestamp": "2025-12-06T20:37:56.362579+00:00",
        "meta_object_name": "FENGYUN 1C DEB",
        "meta_object_id": "1999-025ERC",
        "meta_epoch": "2025-12-02T22:55:17.920128",
        "meta_mean_motion": 14.24904344,
        "meta_eccentricity": 0.0095238,
        "meta_inclination": 98.4544,
        "meta_ra_of_asc_node": 241.676,
        "meta_arg_of_pericenter": 156.473,
        "meta_mean_anomaly": 204.085,
        "meta_ephemeris_type": 0,
        "meta_classification_type": "U",
        "meta_norad_cat_id": 38155,
        "meta_element_set_no": 999,
        "meta_rev_at_epoch": 63636,
        "meta_bstar": 0.0036122,
        "meta_mean_motion_dot": 8.816e-05,
        "meta_mean_motion_ddot": 0,
        "tle_line1": "1 38155U 99025ERC 25336.95506852  .00008816  00000+0  36122-2 0  9994",
        "tle_line2": "2 38155  98.4544 241.6760 0095238 156.4730 204.0850 14.24904344636365"
      },
      "geometry": {
        "type": "Point",
        "coordinates": [
          58.38042394630519,
          -39.55762475583526
        ]
      }
    }
  ]
}